[{"OBJECT_NAME":"STARLINK-6075","OBJECT_ID":"2023-046K","EPOCH":"2026-03-09T23:11:06.102240","MEAN_MOTION":15.02530441,"ECCENTRICITY":0.00013026,"INCLINATION":43.0018,"RA_OF_ASC_NODE":157.4403,"ARG_OF_PERICENTER":269.7167,"MEAN_ANOMALY":90.3526,"EPHEMERIS_TYPE":0,"CLASSIFICATION_TYPE":"U","NORAD_CAT_ID":56102,"ELEMENT_SET_NO":999,"REV_AT_EPOCH":16210,"BSTAR":-1.9428073e-5,"MEAN_MOTION_DOT":-4.66e-6,"MEAN_MOTION_DDOT":0},{"OBJECT_NAME":"PEGASUS R\/B","OBJECT_ID":"1998-071B","EPOCH":"2026-03-09T18:27:50.570784","MEAN_MOTION":15.03047703,"ECCENTRICITY":0.0004531,"INCLINATION":69.9123,"RA_OF_ASC_NODE":198.9358,"ARG_OF_PERICENTER":7.5622,"MEAN_ANOMALY":352.5606,"EPHEMERIS_TYPE":0,"CLASSIFICATION_TYPE":"U","NORAD_CAT_ID":25561,"ELEMENT_SET_NO":999,"REV_AT_EPOCH":48091,"BSTAR":0.00030278547,"MEAN_MOTION_DOT":3.992e-5,"MEAN_MOTION_DDOT":0}]
